      2.10          NAVIGATION                              RINEX VERSION / TYPE
mergeRinNav         gpstk               01/08/2019 19:29:01 PGM / RUN BY / DATE
    7.4506e-09  7.1148e-09 -6.0392e-09 -3.8447e-09          ION ALPHA
    9.0112e+04  3.6506e+04 -6.6402e+03 -1.6909e+04          ION BETA
   -9.313225746150e-01 9.000000000000e+00   233472     1854 DELTA-UTC: A0,A1,T,W
    17                                                      LEAP SECONDS
                                                            END OF HEADER
 2 15  7 19  4  0  0.0 5.791005678470e-04 2.273736754430e-12 0.000000000000e+00
    1.800000000000e+01-6.650000000000e+01 4.906632952390e-09-3.090461475270e-01
   -3.376975655560e-06 1.465928019020e-02 1.001171767710e-05 5.153600687030e+03
    1.440000000000e+04-2.793967723850e-08-2.966113532160e+00 2.104789018630e-07
    9.415866794250e-01 1.823437500000e+02-2.247640797300e+00-8.388206545330e-09
    6.071681481330e-11 1.000000000000e+00 1.854000000000e+03 0.000000000000e+00
    2.400000000000e+00 0.000000000000e+00-2.048909664150e-08 1.800000000000e+01
    7.200000000000e+03 4.000000000000e+00
20 15  7 19  4  0  0.0 3.395988605920e-04 3.183231456210e-12 0.000000000000e+00
    3.000000000000e+00 4.318750000000e+01 5.565946129710e-09 6.640917352290e-01
    2.373009920120e-06 4.783798940480e-03 8.437782526020e-06 5.153611572270e+03
    1.440000000000e+04-5.029141902920e-08-1.961218375040e+00 5.215406417850e-08
    9.259535798780e-01 1.999062500000e+02 1.179896221790e+00-8.567499727900e-09
    4.328751738460e-10 1.000000000000e+00 1.854000000000e+03 0.000000000000e+00
    2.400000000000e+00 0.000000000000e+00-8.381903171540e-09 3.000000000000e+00
    7.200000000000e+03 4.000000000000e+00
13 15  7 19  4  0  0.0-1.333956606690e-04-3.296918293930e-12 0.000000000000e+00
    1.100000000000e+01-2.343750000000e+01 4.673408951960e-09-6.814655551470e-01
   -1.100823283200e-06 4.891450400460e-03 5.731359124180e-06 5.153678613660e+03
    1.440000000000e+04 4.842877388000e-08-7.280437696020e-01-7.264316082000e-08
    9.736157815200e-01 2.735312500000e+02 2.099430730720e+00-8.235343035090e-09
   -3.839445642610e-10 1.000000000000e+00 1.854000000000e+03 0.000000000000e+00
    2.400000000000e+00 0.000000000000e+00-1.117587089540e-08 1.100000000000e+01
    7.200000000000e+03 4.000000000000e+00
15 15  7 19  4  0  0.0-2.612532116470e-04-2.046363078990e-12 0.000000000000e+00
    4.300000000000e+01-1.281250000000e+01 5.694522914020e-09 6.032149975030e-01
   -4.973262548450e-07 7.224959088490e-03 4.371628165250e-06 5.153671770100e+03
    1.440000000000e+04 3.539025783540e-08-8.888401747550e-01 3.166496753690e-08
    9.326635242880e-01 2.755937500000e+02 3.919414978680e-01-8.752864591940e-09
   -3.978737158940e-10 1.000000000000e+00 1.854000000000e+03 0.000000000000e+00
    2.400000000000e+00 0.000000000000e+00-1.071020960810e-08 4.300000000000e+01
    7.200000000000e+03 4.000000000000e+00
21 15  7 19  4  0  0.0-4.649036563930e-04-3.183231456210e-12 0.000000000000e+00
    3.400000000000e+01-7.959375000000e+01 4.755555230820e-09-2.407024461000e+00
   -4.323199391370e-06 2.248728007540e-02 1.010484993460e-05 5.153797716140e+03
    1.440000000000e+04 3.166496753690e-07-2.951897200010e+00 6.519258022310e-08
    9.346658114860e-01 1.599062500000e+02-1.892642046380e+00-7.801396388050e-09
    2.239378993410e-10 1.000000000000e+00 1.854000000000e+03 0.000000000000e+00
    2.400000000000e+00 0.000000000000e+00-1.164153218270e-08 3.400000000000e+01
    7.200000000000e+03 4.000000000000e+00
12 15  7 19  4  0  0.0 3.111758269370e-04 3.296918293930e-12 0.000000000000e+00
    3.500000000000e+01 8.781250000000e+01 3.761942414290e-09-1.999460961280e+00
    4.623085260390e-06 5.556512973270e-03 5.643814802170e-06 5.153645814900e+03
    1.440000000000e+04-5.215406417850e-08 1.301961714260e+00-8.009374141690e-08
    9.897022701010e-01 2.876250000000e+02 6.374001936140e-01-7.743179677370e-09
    3.228705917130e-10 1.000000000000e+00 1.854000000000e+03 0.000000000000e+00
    2.400000000000e+00 0.000000000000e+00-1.257285475730e-08 3.500000000000e+01
    7.200000000000e+03 4.000000000000e+00
25 15  7 19  4  0  0.0-1.471815630790e-05-4.547473508860e-12 0.000000000000e+00
    8.500000000000e+01 9.168750000000e+01 3.961950745440e-09-2.663159187640e+00
    4.835426807400e-06 4.651480587200e-03 5.876645445820e-06 5.153654541020e+03
    1.440000000000e+04-3.352761268620e-08 1.254708170010e+00 5.401670932770e-08
    9.781925061010e-01 2.758750000000e+02 7.558478618800e-01-7.843183842950e-09
    3.457286867020e-10 1.000000000000e+00 1.854000000000e+03 0.000000000000e+00
    2.400000000000e+00 0.000000000000e+00 5.122274160390e-09 8.500000000000e+01
    7.200000000000e+03 4.000000000000e+00
29 15  7 19  4  0  0.0 6.231791339810e-04 2.046363078990e-12 0.000000000000e+00
    8.000000000000e+01-6.571875000000e+01 4.345895309700e-09-2.487125937700e+00
   -3.308057785030e-06 1.075017848050e-03 3.306195139880e-06 5.153729454040e+03
    1.440000000000e+04-9.313225746150e-09 2.356390096970e+00-7.450580596920e-09
    9.739420166400e-01 3.221250000000e+02-4.830037595480e-01-8.200341577140e-09
   -7.250302004180e-11 1.000000000000e+00 1.854000000000e+03 0.000000000000e+00
    2.400000000000e+00 0.000000000000e+00-1.024454832080e-08 8.000000000000e+01
    7.200000000000e+03 4.000000000000e+00
18 15  7 19  4  0  0.0 4.183817654850e-04 3.069544618480e-12 0.000000000000e+00
    4.700000000000e+01 4.818750000000e+01 5.424511666970e-09 2.827917921040e+00
    2.343207597730e-06 1.635451521720e-02 7.968395948410e-06 5.153618223190e+03
    1.440000000000e+04 1.024454832080e-07-1.908940055360e+00-1.974403858180e-07
    9.247215541590e-01 2.033750000000e+02-1.946567139290e+00-8.173197589340e-09
    4.418041172010e-10 1.000000000000e+00 1.854000000000e+03 0.000000000000e+00
    2.400000000000e+00 0.000000000000e+00-1.117587089540e-08 4.700000000000e+01
    7.200000000000e+03 4.000000000000e+00
26 15  7 19  4  0  0.0-1.089693978430e-05-5.798028723800e-12 0.000000000000e+00
    4.900000000000e+01 9.821875000000e+01 4.466971781590e-09 1.783711793980e+00
    5.077570676800e-06 2.921960549430e-04 6.137415766720e-06 5.153606027600e+03
    1.440000000000e+04 6.332993507390e-08 1.251210893180e+00 7.450580596920e-09
    9.602967623630e-01 2.616250000000e+02 1.277856174400e+00-8.230699984550e-09
    3.228705917130e-10 1.000000000000e+00 1.854000000000e+03 0.000000000000e+00
    2.400000000000e+00 0.000000000000e+00 7.450580596920e-09 4.900000000000e+01
    7.620000000000e+03 4.000000000000e+00
16 15  7 19  4  0  0.0-1.070238649850e-04 4.092726157980e-12 0.000000000000e+00
    5.300000000000e+01 9.562500000000e+01 3.839088484870e-09 2.252393022310e+00
    4.848465323450e-06 8.112737559710e-03 6.254762411120e-06 5.153589414600e+03
    1.440000000000e+04-8.195638656620e-08 1.320661902020e+00 5.587935447690e-09
    9.902341885770e-01 2.762187500000e+02 3.212650596020e-01-7.865327622470e-09
    2.960837616490e-10 1.000000000000e+00 1.854000000000e+03 0.000000000000e+00
    2.400000000000e+00 0.000000000000e+00-1.024454832080e-08 5.300000000000e+01
    1.062000000000e+04 4.000000000000e+00
22 15  7 19  4  0  0.0 3.724945709110e-04 3.865352482530e-12 0.000000000000e+00
    4.000000000000e+01 4.390625000000e+01 5.590590013370e-09 2.358897061650e+00
    2.218410372730e-06 8.036729064770e-03 8.272007107730e-06 5.153685140610e+03
    1.440000000000e+04 4.097819328310e-08-1.907867376530e+00-1.247972249980e-07
    9.225395635670e-01 2.004062500000e+02-2.038132226400e+00-8.370348658620e-09
    5.100212444320e-10 1.000000000000e+00 1.854000000000e+03 0.000000000000e+00
    3.400000000000e+00 0.000000000000e+00-1.769512891770e-08 4.000000000000e+01
    1.074000000000e+04 4.000000000000e+00
24 15  7 19  4  0  0.0-1.566484570500e-06-6.821210263300e-13 0.000000000000e+00
    6.200000000000e+01 1.184375000000e+01 4.426612957630e-09-6.072584474830e-01
    4.675239324570e-07 3.263636259360e-03 1.053698360920e-05 5.153671527860e+03
    1.440000000000e+04 7.264316082000e-08 1.905593988670e-01 7.078051567080e-08
    9.532867266410e-01 1.749375000000e+02 3.482883793350e-01-7.969260523120e-09
   -4.775198906200e-10 1.000000000000e+00 1.854000000000e+03 0.000000000000e+00
    2.400000000000e+00 0.000000000000e+00 2.328306436540e-09 6.200000000000e+01
    1.215000000000e+04 4.000000000000e+00
